$$SOE
2459580.500000000, A.D. 2022-Jan-01 00:00:00.0000, -3.080585948452549E+08, -1.139618699003936E+08, 5.924556778419234E+06,
2459587.500000000, A.D. 2022-Jan-08 00:00:00.0000, -3.016724413633033E+08, -1.247810857994097E+08, 7.183652258401483E+06,
2459594.500000000, A.D. 2022-Jan-15 00:00:00.0000, -2.948657920415023E+08, -1.354262951825352E+08, 8.432728382054821E+06,
2459601.500000000, A.D. 2022-Jan-22 00:00:00.0000, -2.876406747930390E+08, -1.458792332067112E+08, 9.669830066105552E+06,
2459608.500000000, A.D. 2022-Jan-29 00:00:00.0000, -2.799999937138371E+08, -1.561213353829855E+08, 1.089295403626636E+07,
2459615.500000000, A.D. 2022-Feb-05 00:00:00.0000, -2.719475791999705E+08, -1.661337806351998E+08, 1.210005248096762E+07,
2459622.500000000, A.D. 2022-Feb-12 00:00:00.0000, -2.634882346567318E+08, -1.758975410660806E+08, 1.328903703407043E+07,
2459629.500000000, A.D. 2022-Feb-19 00:00:00.0000, -2.546277805082664E+08, -1.853934362296333E+08, 1.445778343202236E+07,
2459636.500000000, A.D. 2022-Feb-26 00:00:00.0000, -2.453730961413752E+08, -1.946021927365697E+08, 1.560413693121666E+07,
2459643.500000000, A.D. 2022-Mar-05 00:00:00.0000, -2.357321588936700E+08, -2.035045098425525E+08, 1.672591843757520E+07,
2459650.500000000, A.D. 2022-Mar-12 00:00:00.0000, -2.257140790944547E+08, -2.120811310343842E+08, 1.782093133178865E+07,
2459657.500000000, A.D. 2022-Mar-19 00:00:00.0000, -2.153291302870878E+08, -2.203129214322738E+08, 1.888696898664804E+07,
2459664.500000000, A.D. 2022-Mar-26 00:00:00.0000, -2.045887737835860E+08, -2.281809507408276E+08, 1.992182296355861E+07,
2459671.500000000, A.D. 2022-Apr-02 00:00:00.0000, -1.935056766379905E+08, -2.356665814061038E+08, 2.092329185284728E+07,
2459678.500000000, A.D. 2022-Apr-09 00:00:00.0000, -1.820937219206610E+08, -2.427515614535551E+08, 2.188919069292340E+07,
2459685.500000000, A.D. 2022-Apr-16 00:00:00.0000, -1.703680101214120E+08, -2.494181207140054E+08, 2.281736093395481E+07,
2459692.500000000, A.D. 2022-Apr-23 00:00:00.0000, -1.583448521986184E+08, -2.556490685891912E+08, 2.370568108320595E+07,
2459699.500000000, A.D. 2022-Apr-30 00:00:00.0000, -1.460417554777305E+08, -2.614278947027470E+08, 2.455207793921201E+07,
2459706.500000000, A.D. 2022-May-07 00:00:00.0000, -1.334773987726374E+08, -2.667388733788183E+08, 2.535453787773634E+07,
2459713.500000000, A.D. 2022-May-14 00:00:00.0000, -1.206715948994129E+08, -2.715671677568874E+08, 2.611111820118774E+07,
2459720.500000000, A.D. 2022-May-21 00:00:00.0000, -1.076452423155548E+08, -2.758989315238286E+08, 2.681995867613970E+07,
2459727.500000000, A.D. 2022-May-28 00:00:00.0000, -9.442026623182529E+07, -2.797214078772944E+08, 2.747929308742593E+07,
2459734.500000000, A.D. 2022-Jun-04 00:00:00.0000, -8.101954897361098E+07, -2.830230246296023E+08, 2.808746060892045E+07,
2459741.500000000, A.D. 2022-Jun-11 00:00:00.0000, -6.746684969867118E+07, -2.857934840193542E+08, 2.864291681982543E+07,
2459748.500000000, A.D. 2022-Jun-18 00:00:00.0000, -5.378671389129998E+07, -2.880238457997830E+08, 2.914424420225774E+07,
2459755.500000000, A.D. 2022-Jun-25 00:00:00.0000, -4.000437327695350E+07, -2.897066022704403E+08, 2.959016195572649E+07,
2459762.500000000, A.D. 2022-Jul-02 00:00:00.0000, -2.614563691056704E+07, -2.908357440368026E+08, 2.997953495897238E+07,
2459769.500000000, A.D. 2022-Jul-09 00:00:00.0000, -1.223677413910314E+07, -2.914068151595067E+08, 3.031138171635517E+07,
2459776.500000000, A.D. 2022-Jul-16 00:00:00.0000, 1.695609229313569E+06, -2.914169556014125E+08, 3.058488125418557E+07,
2459783.500000000, A.D. 2022-Jul-23 00:00:00.0000, 1.562469791376960E+07, -2.908649300651668E+08, 3.079937906224364E+07,
2459790.500000000, A.D. 2022-Jul-30 00:00:00.0000, 2.952359582804065E+07, -2.897511459511951E+08, 3.095439170371535E+07,
2459797.500000000, A.D. 2022-Aug-06 00:00:00.0000, 4.336545837620611E+07, -2.880776593975101E+08, 3.104960974365966E+07,
2459804.500000000, A.D. 2022-Aug-13 00:00:00.0000, 5.712362585382847E+07, -2.858481665037394E+08, 3.108489924898607E+07,
2459811.500000000, A.D. 2022-Aug-20 00:00:00.0000, 7.077175467920917E+07, -2.830679803485749E+08, 3.106030194076808E+07,
2459818.500000000, A.D. 2022-Aug-27 00:00:00.0000, 8.428394485374075E+07, -2.797439948810113E+08, 3.097603393772955E+07,
2459825.500000000, A.D. 2022-Sep-03 00:00:00.0000, 9.763486230759172E+07, -2.758846363889330E+08, 3.083248309016740E+07,
2459832.500000000, A.D. 2022-Sep-10 00:00:00.0000, 1.107998547438365E+08, -2.714998033341473E+08, 3.063020495400168E+07,
2459839.500000000, A.D. 2022-Sep-17 00:00:00.0000, 1.237550596833269E+08, -2.666007955618446E+08, 3.036991748046437E+07,
2459846.500000000, A.D. 2022-Sep-24 00:00:00.0000, 1.364775036251342E+08, -2.612002341062783E+08, 3.005249451090774E+07,
2459853.500000000, A.D. 2022-Oct-01 00:00:00.0000, 1.489451916195116E+08, -2.553119729211861E+08, 2.967895817178088E+07,
2459860.500000000, A.D. 2022-Oct-08 00:00:00.0000, 1.611371869296044E+08, -2.489510034170174E+08, 2.925047030932181E+07,
2459867.500000000, A.D. 2022-Oct-15 00:00:00.0000, 1.730336793361493E+08, -2.421333520641431E+08, 2.876832329070409E+07,
2459874.500000000, A.D. 2022-Oct-22 00:00:00.0000, 1.846160396079827E+08, -2.348759742165823E+08, 2.823393038152856E+07,
2459881.500000000, A.D. 2022-Oct-29 00:00:00.0000, 1.958668625555431E+08, -2.271966481981180E+08, 2.764881540745544E+07,
2459888.500000000, A.D. 2022-Nov-05 00:00:00.0000, 2.067700008906383E+08, -2.191138683111679E+08, 2.701460188042762E+07,
2459895.500000000, A.D. 2022-Nov-12 00:00:00.0000, 2.173105882344737E+08, -2.106467368284156E+08, 2.633300201875198E+07,
2459902.500000000, A.D. 2022-Nov-19 00:00:00.0000, 2.274750510205723E+08, -2.018148571461266E+08, 2.560580578672924E+07,
2459909.500000000, A.D. 2022-Nov-26 00:00:00.0000, 2.372511101571468E+08, -1.926382295999455E+08, 2.483487002483714E+07,
2459916.500000000, A.D. 2022-Dec-03 00:00:00.0000, 2.466277733288767E+08, -1.831371509249683E+08, 2.402210777020604E+07,
2459923.500000000, A.D. 2022-Dec-10 00:00:00.0000, 2.555953187830422E+08, -1.733321181715623E+08, 2.316947786783911E+07,
2459930.500000000, A.D. 2022-Dec-17 00:00:00.0000, 2.641452714827678E+08, -1.632437377893336E+08, 2.227897495738144E+07,
2459937.500000000, A.D. 2022-Dec-24 00:00:00.0000, 2.722703726271678E+08, -1.528926404892026E+08, 2.135261989403765E+07,
2459944.500000000, A.D. 2022-Dec-31 00:00:00.0000, 2.799645437986574E+08, -1.422994021796172E+08, 2.039245063908578E+07,
2459951.500000000, A.D. 2023-Jan-07 00:00:00.0000, 2.872228467595822E+08, -1.314844702903178E+08, 1.940051373438220E+07,
2459958.500000000, A.D. 2023-Jan-14 00:00:00.0000, 2.940414378033803E+08, -1.204680951484950E+08, 1.837885661518904E+07,
2459965.500000000, A.D. 2023-Jan-21 00:00:00.0000, 3.004175168385420E+08, -1.092702696262548E+08, 1.732952057879923E+07,
2459972.500000000, A.D. 2023-Jan-28 00:00:00.0000, 3.063492756493939E+08, -9.791067719155352E+07, 1.625453406318410E+07,
2459979.500000000, A.D. 2023-Feb-04 00:00:00.0000, 3.118358458614691E+08, -8.640864519000861E+07, 1.515590650371762E+07,
2459986.500000000, A.D. 2023-Feb-11 00:00:00.0000, 3.168772454999563E+08, -7.478310334936613E+07, 1.403562291286127E+07,
2459993.500000000, A.D. 2023-Feb-18 00:00:00.0000, 3.214743246920044E+08, -6.305254808039005E+07, 1.289563910950518E+07,
2460000.500000000, A.D. 2023-Feb-25 00:00:00.0000, 3.256287113140362E+08, -5.123501244337257E+07, 1.173787754071744E+07,
2460007.500000000, A.D. 2023-Mar-04 00:00:00.0000, 3.293427571520187E+08, -3.934804143250911E+07, 1.056422366185794E+07,
2460014.500000000, A.D. 2023-Mar-11 00:00:00.0000, 3.326194850025579E+08, -2.740867222257401E+07, 9.376522842256980E+06,
2460021.500000000, A.D. 2023-Mar-18 00:00:00.0000, 3.354625370998485E+08, -1.543341905760081E+07, 8.176577755475060E+06,
2460028.500000000, A.D. 2023-Mar-25 00:00:00.0000, 3.378761253508860E+08, -3.438262454534953E+06, 6.966146197283002E+06,
2460035.500000000, A.D. 2023-Apr-01 00:00:00.0000, 3.398649840241272E+08, 8.561358045266412E+06, 5.746939288998926E+06,
2460042.500000000, A.D. 2023-Apr-08 00:00:00.0000, 3.414343244487234E+08, 2.055054917406297E+07, 4.520620187984920E+06,
2460049.500000000, A.D. 2023-Apr-15 00:00:00.0000, 3.425897895265241E+08, 3.251496653821402E+07, 3.288803396072133E+06,
2460056.500000000, A.D. 2023-Apr-22 00:00:00.0000, 3.433374099621029E+08, 4.444081180537416E+07, 2.053054216530951E+06,
2460063.500000000, A.D. 2023-Apr-29 00:00:00.0000, 3.436835649962716E+08, 5.631482705308775E+07, 8.148882590702511E+05,
2460070.500000000, A.D. 2023-May-06 00:00:00.0000, 3.436349459053557E+08, 6.812428836655061E+07, -4.242287316179834E+05,
2460077.500000000, A.D. 2023-May-13 00:00:00.0000, 3.431985212894642E+08, 7.985699807729292E+07, -1.662880736878809E+06,
2460084.500000000, A.D. 2023-May-20 00:00:00.0000, 3.423815043617249E+08, 9.150127541501392E+07, -2.899701104432363E+06,
2460091.500000000, A.D. 2023-May-27 00:00:00.0000, 3.411913223908172E+08, 1.030459457851697E+08, -4.133372014595896E+06,
2460098.500000000, A.D. 2023-Jun-03 00:00:00.0000, 3.396355882980541E+08, 1.144803289195187E+08, -5.362623800089650E+06,
2460105.500000000, A.D. 2023-Jun-10 00:00:00.0000, 3.377220743647017E+08, 1.257942260868791E+08, -6.586234145348102E+06,
2460112.500000000, A.D. 2023-Jun-17 00:00:00.0000, 3.354586880619740E+08, 1.369779064854970E+08, -7.803027199141487E+06,
2460119.500000000, A.D. 2023-Jun-24 00:00:00.0000, 3.328534502409973E+08, 1.480220930343319E+08, -9.011872644364417E+06,
2460126.500000000, A.D. 2023-Jul-01 00:00:00.0000, 3.299144758454244E+08, 1.589179485327976E+08, -1.021168469795517E+07,
2460133.500000000, A.D. 2023-Jul-08 00:00:00.0000, 3.266499553747869E+08, 1.696570631389447E+08, -1.140142083516421E+07,
2460140.500000000, A.D. 2023-Jul-15 00:00:00.0000, 3.230681357309666E+08, 1.802314404545979E+08, -1.258008036530249E+07,
2460147.500000000, A.D. 2023-Jul-22 00:00:00.0000, 3.191773038821919E+08, 1.906334812805797E+08, -1.374670327915107E+07,
$$EOE